0 ARIANE 44LP R/B
1 20170U 89062C   13281.72328646  .00000250  00000-0  88167-3 0  4971
2 20170 007.6567 005.6699 7108457 291.7874 092.0808 02.42600005201096
0 ARIANE 44LP R/B
1 20170U 89062C   13282.91493472  .00000251  00000-0  96158-3 0  4984
2 20170 007.6560 005.1804 7108320 292.7725 052.8160 02.42602547201129
0 ARIANE 44LP R/B
1 20170U 89062C   13285.35041529  .00000357  00000-0  93177-3 0  4993
2 20170 007.6544 004.1790 7108150 294.7848 019.8841 02.42604937201183
0 ARIANE 44LP R/B
1 20170U 89062C   13286.66400434  .00000582  00000-0  11355-2 0  5002
2 20170 007.6532 003.6398 7108041 295.8692 087.1397 02.42605988201211
0 ARIANE 44LP R/B
1 20170U 89062C   13287.94095959  .00000716  00000-0  12081-2 0  5013
2 20170 007.6522 003.1152 7107926 296.9233 122.4008 02.42609066201254
0 ARIANE 44LP R/B
1 20170U 89062C   13289.22451086  .00000582  00000-0  88067-3 0  5023
2 20170 007.6510 002.5879 7107907 297.9811 163.4329 02.42610437201280
0 ARIANE 44LP R/B
1 20170U 89062C   13290.35199602  .00000618  00000-0  99423-3 0  5053
2 20170 007.6499 002.1256 7107806 298.9111 068.1702 02.42611533201300
0 ARIANE 44LP R/B
1 20170U 89062C   13290.69603622 -.00000492  00000-0  00000+0 0  5041
2 20170 007.6518 001.9355 7109492 299.2525 008.6594 02.42608232201327
0 ARIANE 44LP R/B
1 20170U 89062C   13290.69604287  .00000466  00000-0  89841-3 0  5032
2 20170 007.6514 001.9378 7109494 299.2582 008.6588 02.42609853201326
0 ARIANE 44LP R/B
1 20170U 89062C   13292.41791309  .00000471  00000-0  10025-2 0  5062
2 20170 007.6479 001.2778 7107723 300.6132 072.5400 02.42613495201357
0 ARIANE 44LP R/B
1 20170U 89062C   13294.05649203  .00000330  00000-0  10291-2 0  5079
2 20170 007.6462 000.6040 7107667 301.9654 063.6846 02.42615598201399
0 ARIANE 44LP R/B
1 20170U 89062C   13295.23393236  .00000285  00000-0  11204-2 0  5087
2 20170 007.6450 000.1198 7107655 302.9378 012.0755 02.42617110201429
